0 COSMOS 942
1 10288U 77079D   13281.42990566  .00000013  00000-0  20893-3 0  9039
2 10288 074.0237 255.0255 0044514 175.2646 302.5066 12.42196465638231
0 COSMOS 942
1 10288U 77079D   13283.44093792 -.00000022  00000-0 -50829-4 0  9044
2 10288 074.0239 252.3906 0044481 172.2765 295.6658 12.42196710638487
0 COSMOS 942
1 10288U 77079D   13285.83512376 -.00000034  00000-0 -13375-3 0  9051
2 10288 074.0243 249.2537 0044449 168.7056 202.2706 12.42196924638782
0 COSMOS 942
1 10288U 77079D   13288.19157149 -.00000020  00000-0 -31651-4 0  9060
2 10288 074.0249 246.1663 0044410 165.1812 300.1259 12.42196761639076
0 COSMOS 942
1 10288U 77079D   13290.38125963 -.00000003  00000-0  87681-4 0  9078
2 10288 074.0253 243.2976 0044376 161.9088 012.2406 12.42196493639343
0 COSMOS 942
1 10288U 77079D   13292.84497304  .00000012  00000-0  19545-3 0  9085
2 10288 074.0254 240.0702 0044328 158.2094 229.7901 12.42196483639657
0 COSMOS 942
1 10288U 77079D   13294.86572942  .00000007  00000-0  16516-3 0  9091
2 10288 074.0254 237.4230 0044290 155.1809 266.4616 12.42196612639904
